[{"OBJECT_NAME":"ONEWEB-0660","OBJECT_ID":"2023-029AA","EPOCH":"2026-05-09T23:47:57.164640","MEAN_MOTION":13.1450467,"ECCENTRICITY":0.0001967,"INCLINATION":87.8931,"RA_OF_ASC_NODE":297.3171,"ARG_OF_PERICENTER":85.972,"MEAN_ANOMALY":274.1634,"EPHEMERIS_TYPE":0,"CLASSIFICATION_TYPE":"U","NORAD_CAT_ID":55820,"ELEMENT_SET_NO":999,"REV_AT_EPOCH":15438,"BSTAR":0.00057851,"MEAN_MOTION_DOT":2.27e-06,"MEAN_MOTION_DDOT":0.0},{"OBJECT_NAME":"ONEWEB-0661","OBJECT_ID":"2023-029AB","EPOCH":"2026-05-10T04:17:25.427328","MEAN_MOTION":13.14504398,"ECCENTRICITY":0.0002048,"INCLINATION":87.8921,"RA_OF_ASC_NODE":297.3295,"ARG_OF_PERICENTER":88.3019,"MEAN_ANOMALY":271.8345,"EPHEMERIS_TYPE":0,"CLASSIFICATION_TYPE":"U","NORAD_CAT_ID":55821,"ELEMENT_SET_NO":999,"REV_AT_EPOCH":15439,"BSTAR":-0.00040244,"MEAN_MOTION_DOT":-1.36e-06,"MEAN_MOTION_DDOT":0.0},{"OBJECT_NAME":"ONEWEB-0662","OBJECT_ID":"2023-029AC","EPOCH":"2026-05-09T23:38:50.185248","MEAN_MOTION":13.14503461,"ECCENTRICITY":0.0001965,"INCLINATION":87.8917,"RA_OF_ASC_NODE":297.3752,"ARG_OF_PERICENTER":85.6288,"MEAN_ANOMALY":274.5066,"EPHEMERIS_TYPE":0,"CLASSIFICATION_TYPE":"U","NORAD_CAT_ID":55822,"ELEMENT_SET_NO":999,"REV_AT_EPOCH":15441,"BSTAR":0.0006368700000000001,"MEAN_MOTION_DOT":2.49e-06,"MEAN_MOTION_DDOT":0.0},{"OBJECT_NAME":"ONEWEB-0663","OBJECT_ID":"2023-029AD","EPOCH":"2026-05-10T03:14:42.315936","MEAN_MOTION":13.20866432,"ECCENTRICITY":0.000186,"INCLINATION":87.9161,"RA_OF_ASC_NODE":282.0918,"ARG_OF_PERICENTER":83.148,"MEAN_ANOMALY":276.9865,"EPHEMERIS_TYPE":0,"CLASSIFICATION_TYPE":"U","NORAD_CAT_ID":55823,"ELEMENT_SET_NO":999,"REV_AT_EPOCH":15612,"BSTAR":0.00022098000000000002,"MEAN_MOTION_DOT":1.03e-06,"MEAN_MOTION_DDOT":0.0},{"OBJECT_NAME":"ONEWEB-0664","OBJECT_ID":"2023-029AE","EPOCH":"2026-05-10T03:52:23.300256","MEAN_MOTION":13.20839876,"ECCENTRICITY":0.0002329,"INCLINATION":87.9146,"RA_OF_ASC_NODE":282.0718,"ARG_OF_PERICENTER":94.316,"MEAN_ANOMALY":265.8239,"EPHEMERIS_TYPE":0,"CLASSIFICATION_TYPE":"U","NORAD_CAT_ID":55824,"ELEMENT_SET_NO":999,"REV_AT_EPOCH":15612,"BSTAR":0.00027995,"MEAN_MOTION_DOT":1.27e-06,"MEAN_MOTION_DDOT":0.0},{"OBJECT_NAME":"ONEWEB-0665","OBJECT_ID":"2023-029AF","EPOCH":"2026-05-10T04:12:52.026624","MEAN_MOTION":13.14503298,"ECCENTRICITY":0.0001879,"INCLINATION":87.8922,"RA_OF_ASC_NODE":297.3109,"ARG_OF_PERICENTER":83.8273,"MEAN_ANOMALY":276.3071,"EPHEMERIS_TYPE":0,"CLASSIFICATION_TYPE":"U","NORAD_CAT_ID":55825,"ELEMENT_SET_NO":999,"REV_AT_EPOCH":15441,"BSTAR":-0.00051285,"MEAN_MOTION_DOT":-1.77e-06,"MEAN_MOTION_DDOT":0.0},{"OBJECT_NAME":"ONEWEB-0666","OBJECT_ID":"2023-029AG","EPOCH":"2026-05-10T03:43:04.884960","MEAN_MOTION":13.20895039,"ECCENTRICITY":0.0001681,"INCLINATION":87.9147,"RA_OF_ASC_NODE":282.0629,"ARG_OF_PERICENTER":119.7747,"MEAN_ANOMALY":240.3553,"EPHEMERIS_TYPE":0,"CLASSIFICATION_TYPE":"U","NORAD_CAT_ID":55826,"ELEMENT_SET_NO":999,"REV_AT_EPOCH":15613,"BSTAR":0.00049212,"MEAN_MOTION_DOT":2.13e-06,"MEAN_MOTION_DDOT":0.0},{"OBJECT_NAME":"ONEWEB-0667","OBJECT_ID":"2023-029AH","EPOCH":"2026-05-10T03:34:37.941600","MEAN_MOTION":13.20730598,"ECCENTRICITY":0.0001925,"INCLINATION":87.9163,"RA_OF_ASC_NODE":282.0158,"ARG_OF_PERICENTER":92.7073,"MEAN_ANOMALY":267.428,"EPHEMERIS_TYPE":0,"CLASSIFICATION_TYPE":"U","NORAD_CAT_ID":55827,"ELEMENT_SET_NO":999,"REV_AT_EPOCH":15612,"BSTAR":0.00010653,"MEAN_MOTION_DOT":5.6e-07,"MEAN_MOTION_DDOT":0.0},{"OBJECT_NAME":"ONEWEB-0669","OBJECT_ID":"2023-029AJ","EPOCH":"2026-05-09T23:49:25.360896","MEAN_MOTION":13.20790672,"ECCENTRICITY":0.000226,"INCLINATION":87.9145,"RA_OF_ASC_NODE":282.06,"ARG_OF_PERICENTER":103.1344,"MEAN_ANOMALY":257.0042,"EPHEMERIS_TYPE":0,"CLASSIFICATION_TYPE":"U","NORAD_CAT_ID":55828,"ELEMENT_SET_NO":999,"REV_AT_EPOCH":15610,"BSTAR":0.0055768,"MEAN_MOTION_DOT":2.282e-05,"MEAN_MOTION_DDOT":0.0},{"OBJECT_NAME":"ONEWEB-0670","OBJECT_ID":"2023-029AK","EPOCH":"2026-05-10T00:01:40.681056","MEAN_MOTION":13.14503382,"ECCENTRICITY":0.0002162,"INCLINATION":87.8922,"RA_OF_ASC_NODE":297.3635,"ARG_OF_PERICENTER":90.968,"MEAN_ANOMALY":269.1697,"EPHEMERIS_TYPE":0,"CLASSIFICATION_TYPE":"U","NORAD_CAT_ID":55829,"ELEMENT_SET_NO":999,"REV_AT_EPOCH":15441,"BSTAR":0.00034981000000000004,"MEAN_MOTION_DOT":1.42e-06,"MEAN_MOTION_DDOT":0.0},{"OBJECT_NAME":"ONEWEB-0671","OBJECT_ID":"2023-029AL","EPOCH":"2026-05-10T00:05:00.347136","MEAN_MOTION":13.1972546,"ECCENTRICITY":0.0001906,"INCLINATION":87.9145,"RA_OF_ASC_NODE":312.5908,"ARG_OF_PERICENTER":85.5427,"MEAN_ANOMALY":274.5923,"EPHEMERIS_TYPE":0,"CLASSIFICATION_TYPE":"U","NORAD_CAT_ID":55830,"ELEMENT_SET_NO":999,"REV_AT_EPOCH":15386,"BSTAR":0.00020684,"MEAN_MOTION_DOT":9.6e-07,"MEAN_MOTION_DDOT":0.0},{"OBJECT_NAME":"ONEWEB-0672","OBJECT_ID":"2023-029AM","EPOCH":"2026-05-09T23:42:30.716064","MEAN_MOTION":13.20812024,"ECCENTRICITY":0.0001859,"INCLINATION":87.9157,"RA_OF_ASC_NODE":282.0547,"ARG_OF_PERICENTER":106.7966,"MEAN_ANOMALY":253.3371,"EPHEMERIS_TYPE":0,"CLASSIFICATION_TYPE":"U","NORAD_CAT_ID":55831,"ELEMENT_SET_NO":999,"REV_AT_EPOCH":15610,"BSTAR":0.00061681,"MEAN_MOTION_DOT":2.64e-06,"MEAN_MOTION_DDOT":0.0},{"OBJECT_NAME":"ONEWEB-0673","OBJECT_ID":"2023-029AN","EPOCH":"2026-05-10T01:21:11.118816","MEAN_MOTION":13.19724157,"ECCENTRICITY":0.0001947,"INCLINATION":87.9155,"RA_OF_ASC_NODE":312.5687,"ARG_OF_PERICENTER":87.863,"MEAN_ANOMALY":272.2725,"EPHEMERIS_TYPE":0,"CLASSIFICATION_TYPE":"U","NORAD_CAT_ID":55832,"ELEMENT_SET_NO":999,"REV_AT_EPOCH":15387,"BSTAR":-0.00011405000000000001,"MEAN_MOTION_DOT":-3.3e-07,"MEAN_MOTION_DDOT":0.0},{"OBJECT_NAME":"ONEWEB-0674","OBJECT_ID":"2023-029AP","EPOCH":"2026-05-10T04:44:49.930368","MEAN_MOTION":13.14501398,"ECCENTRICITY":0.0002236,"INCLINATION":87.8916,"RA_OF_ASC_NODE":297.3013,"ARG_OF_PERICENTER":91.4243,"MEAN_ANOMALY":268.7143,"EPHEMERIS_TYPE":0,"CLASSIFICATION_TYPE":"U","NORAD_CAT_ID":55833,"ELEMENT_SET_NO":999,"REV_AT_EPOCH":15442,"BSTAR":-0.00020063,"MEAN_MOTION_DOT":-6.2e-07,"MEAN_MOTION_DDOT":0.0},{"OBJECT_NAME":"ONEWEB-0675","OBJECT_ID":"2023-029AQ","EPOCH":"2026-05-10T01:42:48.909024","MEAN_MOTION":13.19725187,"ECCENTRICITY":0.0001542,"INCLINATION":87.9147,"RA_OF_ASC_NODE":312.5786,"ARG_OF_PERICENTER":95.7675,"MEAN_ANOMALY":264.3633,"EPHEMERIS_TYPE":0,"CLASSIFICATION_TYPE":"U","NORAD_CAT_ID":55834,"ELEMENT_SET_NO":999,"REV_AT_EPOCH":15389,"BSTAR":0.00021035999999999998,"MEAN_MOTION_DOT":9.7e-07,"MEAN_MOTION_DDOT":0.0},{"OBJECT_NAME":"ONEWEB-0720","OBJECT_ID":"2023-029AR","EPOCH":"2026-05-10T01:31:26.003424","MEAN_MOTION":13.19725416,"ECCENTRICITY":0.0001758,"INCLINATION":87.9145,"RA_OF_ASC_NODE":312.5808,"ARG_OF_PERICENTER":80.2515,"MEAN_ANOMALY":279.8816,"EPHEMERIS_TYPE":0,"CLASSIFICATION_TYPE":"U","NORAD_CAT_ID":55835,"ELEMENT_SET_NO":999,"REV_AT_EPOCH":15381,"BSTAR":9.268300000000001e-05,"MEAN_MOTION_DOT":5e-07,"MEAN_MOTION_DDOT":0.0}]