ONEWEB-0660             
1 55820U 23029AA  26129.99163385  .00000227  00000+0  57851-3 0  9999
2 55820  87.8931 297.3171 0001967  85.9720 274.1634 13.14504670154381
ONEWEB-0661             
1 55821U 23029AB  26130.17876652 -.00000136  00000+0 -40244-3 0  9999
2 55821  87.8921 297.3295 0002048  88.3019 271.8345 13.14504398154398
ONEWEB-0662             
1 55822U 23029AC  26129.98530307  .00000249  00000+0  63687-3 0  9990
2 55822  87.8917 297.3752 0001965  85.6288 274.5066 13.14503461154410
ONEWEB-0663             
1 55823U 23029AD  26130.13521199  .00000103  00000+0  22098-3 0  9999
2 55823  87.9161 282.0918 0001860  83.1480 276.9865 13.20866432156129
ONEWEB-0664             
1 55824U 23029AE  26130.16138079  .00000127  00000+0  27995-3 0  9991
2 55824  87.9146 282.0718 0002329  94.3160 265.8239 13.20839876156125
ONEWEB-0665             
1 55825U 23029AF  26130.17560216 -.00000177  00000+0 -51285-3 0  9991
2 55825  87.8922 297.3109 0001879  83.8273 276.3071 13.14503298154417
ONEWEB-0666             
1 55826U 23029AG  26130.15491765  .00000213  00000+0  49212-3 0  9998
2 55826  87.9147 282.0629 0001681 119.7747 240.3553 13.20895039156133
ONEWEB-0667             
1 55827U 23029AH  26130.14905025  .00000056  00000+0  10653-3 0  9999
2 55827  87.9163 282.0158 0001925  92.7073 267.4280 13.20730598156126
ONEWEB-0669             
1 55828U 23029AJ  26129.99265464  .00002282  00000+0  55768-2 0  9995
2 55828  87.9145 282.0600 0002260 103.1344 257.0042 13.20790672156108
ONEWEB-0670             
1 55829U 23029AK  26130.00116529  .00000142  00000+0  34981-3 0  9995
2 55829  87.8922 297.3635 0002162  90.9680 269.1697 13.14503382154410
ONEWEB-0671             
1 55830U 23029AL  26130.00347624  .00000096  00000+0  20684-3 0  9992
2 55830  87.9145 312.5908 0001906  85.5427 274.5923 13.19725460153865
ONEWEB-0672             
1 55831U 23029AM  26129.98785551  .00000264  00000+0  61681-3 0  9992
2 55831  87.9157 282.0547 0001859 106.7966 253.3371 13.20812024156107
ONEWEB-0673             
1 55832U 23029AN  26130.05637869 -.00000033  00000+0 -11405-3 0  9996
2 55832  87.9155 312.5687 0001947  87.8630 272.2725 13.19724157153876
ONEWEB-0674             
1 55833U 23029AP  26130.19780012 -.00000062  00000+0 -20063-3 0  9993
2 55833  87.8916 297.3013 0002236  91.4243 268.7143 13.14501398154428
ONEWEB-0675             
1 55834U 23029AQ  26130.07139941  .00000097  00000+0  21036-3 0  9997
2 55834  87.9147 312.5786 0001542  95.7675 264.3633 13.19725187153893
ONEWEB-0720             
1 55835U 23029AR  26130.06349541  .00000050  00000+0  92683-4 0  9992
2 55835  87.9145 312.5808 0001758  80.2515 279.8816 13.19725416153819
